{
  "norad_id": 65625,
  "name": "STARLINK-35153",
  "history": [
    {
      "epoch": "2026-03-28T17:56:19.930560",
      "apogee_km": 476.1175709837171,
      "perigee_km": 474.2042672706548,
      "latitude_deg": -34.15675723263242,
      "longitude_deg": 94.25547840003856,
      "semi_major_axis_km": 6853.297919127185,
      "eccentricity": 0.00013959,
      "inclination_deg": 53.1594,
      "raan_deg": 218.2202,
      "arg_perigee_deg": 69.718,
      "mean_anomaly_deg": 290.3971,
      "mean_motion_rev_day": 15.30218136
    }
  ]
}